start=new Date('2023-04-19T00:00:00.000Z').valueOf();
sats=[{"APOAPSIS":"540.592","NORAD_CAT_ID":"53848","EPOCH":"2023-04-18T16:17:54.309984","ELEMENT_SET_NO":"999","ARG_OF_PERICENTER":"85.7852","CENTER_NAME":"EARTH","REV_AT_EPOCH":"3355","COUNTRY_CODE":"US","GP_ID":"230333991","DECAY_DATE":null,"MEAN_MOTION_DDOT":"0.0000000000000","RCS_SIZE":"LARGE","INCLINATION":"53.2170","CLASSIFICATION_TYPE":"U","PERIOD":"95.438","RA_OF_ASC_NODE":"354.4734","MEAN_MOTION":"15.08836159","EPHEMERIS_TYPE":"0","MEAN_MOTION_DOT":"0.00003892","LAUNCH_DATE":"2022-09-19","TLE_LINE1":"1 53848U 22114AG  23108.67910081  .00003892  00000-0  26254-3 0  9998","TIME_SYSTEM":"UTC","TLE_LINE2":"2 53848  53.2170 354.4734 0001207  85.7852 274.3278 15.08836159 33558","FILE":"3889987","OBJECT_TYPE":"PAYLOAD","BSTAR":"0.00026254000000","SEMIMAJOR_AXIS":"6917.892","OBJECT_NAME":"STARLINK-4780","SITE":"AFETR","ECCENTRICITY":"0.00012070","PERIAPSIS":"538.922","MEAN_ANOMALY":"274.3278","OBJECT_ID":"2022-114AG","MEAN_ELEMENT_THEORY":"SGP4","REF_FRAME":"TEME"},{"NORAD_CAT_ID":"53849","APOAPSIS":"540.442","ELEMENT_SET_NO":"999","EPOCH":"2023-04-18T16:33:49.078368","REV_AT_EPOCH":"3355","COUNTRY_CODE":"US","CENTER_NAME":"EARTH","ARG_OF_PERICENTER":"62.7237","DECAY_DATE":null,"GP_ID":"230333244","RCS_SIZE":"LARGE","MEAN_MOTION_DDOT":"0.0000000000000","INCLINATION":"53.2164","PERIOD":"95.437","CLASSIFICATION_TYPE":"U","MEAN_MOTION":"15.08843942","RA_OF_ASC_NODE":"354.5412","EPHEMERIS_TYPE":"0","TLE_LINE1":"1 53849U 22114AH  23108.69015137  .00004811  00000-0  32014-3 0  9992","MEAN_MOTION_DOT":"0.00004811","LAUNCH_DATE":"2022-09-19","FILE":"3889987","OBJECT_TYPE":"PAYLOAD","TLE_LINE2":"2 53849  53.2164 354.5412 0001024  62.7237 297.3860 15.08843942 33555","TIME_SYSTEM":"UTC","BSTAR":"0.00032014000000","PERIAPSIS":"539.025","SEMIMAJOR_AXIS":"6917.868","SITE":"AFETR","OBJECT_NAME":"STARLINK-4770","ECCENTRICITY":"0.00010240","OBJECT_ID":"2022-114AH","MEAN_ELEMENT_THEORY":"SGP4","REF_FRAME":"TEME","MEAN_ANOMALY":"297.3860"},{"REV_AT_EPOCH":"3355","COUNTRY_CODE":"US","ARG_OF_PERICENTER":"92.1716","CENTER_NAME":"EARTH","DECAY_DATE":null,"GP_ID":"230332993","NORAD_CAT_ID":"53850","APOAPSIS":"540.341","ELEMENT_SET_NO":"999","EPOCH":"2023-04-18T16:01:59.154528","PERIOD":"95.438","CLASSIFICATION_TYPE":"U","MEAN_MOTION":"15.08831511","RA_OF_ASC_NODE":"354.4058","RCS_SIZE":"LARGE","INCLINATION":"53.2166","MEAN_MOTION_DDOT":"0.0000000000000","FILE":"3889987","OBJECT_TYPE":"PAYLOAD","TLE_LINE2":"2 53850  53.2166 354.4058 0000824  92.1716 267.9371 15.08831511 33559","TIME_SYSTEM":"UTC","BSTAR":"0.00009560800000","EPHEMERIS_TYPE":"0","TLE_LINE1":"1 53850U 22114AJ  23108.66804577  .00001234  00000-0  95608-4 0  9990","MEAN_MOTION_DOT":"0.00001234","LAUNCH_DATE":"2022-09-19","MEAN_ELEMENT_THEORY":"SGP4","OBJECT_ID":"2022-114AJ","REF_FRAME":"TEME","MEAN_ANOMALY":"267.9371","PERIAPSIS":"539.201","SEMIMAJOR_AXIS":"6917.906","SITE":"AFETR","ECCENTRICITY":"0.00008240","OBJECT_NAME":"STARLINK-4767"},{"RCS_SIZE":"LARGE","INCLINATION":"53.2164","MEAN_MOTION_DDOT":"0.0000000000000","RA_OF_ASC_NODE":"354.4967","MEAN_MOTION":"15.08839627","CLASSIFICATION_TYPE":"U","PERIOD":"95.438","EPOCH":"2023-04-18T16:23:12.686208","ELEMENT_SET_NO":"999","APOAPSIS":"540.495","NORAD_CAT_ID":"53851","DECAY_DATE":null,"GP_ID":"230334243","ARG_OF_PERICENTER":"86.8529","CENTER_NAME":"EARTH","COUNTRY_CODE":"US","REV_AT_EPOCH":"3355","ECCENTRICITY":"0.00010820","SITE":"AFETR","OBJECT_NAME":"STARLINK-4755","SEMIMAJOR_AXIS":"6917.882","PERIAPSIS":"538.998","MEAN_ANOMALY":"273.2586","REF_FRAME":"TEME","MEAN_ELEMENT_THEORY":"SGP4","OBJECT_ID":"2022-114AK","LAUNCH_DATE":"2022-09-19","MEAN_MOTION_DOT":"0.00006123","TLE_LINE1":"1 53851U 22114AK  23108.68278572  .00006123  00000-0  40244-3 0  9990","EPHEMERIS_TYPE":"0","BSTAR":"0.00040244000000","TIME_SYSTEM":"UTC","TLE_LINE2":"2 53851  53.2164 354.4967 0001082  86.8529 273.2586 15.08839627 33550","OBJECT_TYPE":"PAYLOAD","FILE":"3889987"},{"APOAPSIS":"535.195","NORAD_CAT_ID":"53852","EPOCH":"2023-04-18T22:00:00.999936","ELEMENT_SET_NO":"999","ARG_OF_PERICENTER":"79.4508","CENTER_NAME":"EARTH","COUNTRY_CODE":"US","REV_AT_EPOCH":"130","DECAY_DATE":null,"GP_ID":"230334491","MEAN_MOTION_DDOT":"0.0000000000000","RCS_SIZE":"LARGE","INCLINATION":"53.2163","CLASSIFICATION_TYPE":"U","PERIOD":"95.331","RA_OF_ASC_NODE":"348.7532","MEAN_MOTION":"15.10523258","EPHEMERIS_TYPE":"0","LAUNCH_DATE":"2022-09-19","MEAN_MOTION_DOT":"-0.00086355","TLE_LINE1":"1 53852U 22114AL  23108.91667824 -.00086355  00000-0 -52256-2 0  9991","TLE_LINE2":"2 53852  53.2163 348.7532 0000854  79.4508 321.7960 15.10523258  1301","TIME_SYSTEM":"UTC","OBJECT_TYPE":"PAYLOAD","FILE":"3889987","BSTAR":"-0.00522560000000","OBJECT_NAME":"STARLINK-4797","SITE":"AFETR","ECCENTRICITY":"0.00008540","SEMIMAJOR_AXIS":"6912.740","PERIAPSIS":"534.015","MEAN_ANOMALY":"321.7960","REF_FRAME":"TEME","MEAN_ELEMENT_THEORY":"SGP4","OBJECT_ID":"2022-114AL"},{"CENTER_NAME":"EARTH","ARG_OF_PERICENTER":"115.7010","REV_AT_EPOCH":"3355","COUNTRY_CODE":"US","DECAY_DATE":null,"GP_ID":"230332745","APOAPSIS":"540.660","NORAD_CAT_ID":"53853","EPOCH":"2023-04-18T16:12:35.685792","ELEMENT_SET_NO":"999","CLASSIFICATION_TYPE":"U","PERIOD":"95.438","RA_OF_ASC_NODE":"354.4502","MEAN_MOTION":"15.08834018","INCLINATION":"53.2175","RCS_SIZE":"LARGE","MEAN_MOTION_DDOT":"0.0000000000000","TLE_LINE2":"2 53853  53.2175 354.4502 0001295 115.7010 244.4116 15.08834018 33550","TIME_SYSTEM":"UTC","FILE":"3889987","OBJECT_TYPE":"PAYLOAD","BSTAR":"0.00024541000000","EPHEMERIS_TYPE":"0","MEAN_MOTION_DOT":"0.00003619","LAUNCH_DATE":"2022-09-19","TLE_LINE1":"1 53853U 22114AM  23108.67541303  .00003619  00000-0  24541-3 0  9995","MEAN_ANOMALY":"244.4116","MEAN_ELEMENT_THEORY":"SGP4","OBJECT_ID":"2022-114AM","REF_FRAME":"TEME","SEMIMAJOR_AXIS":"6917.899","SITE":"AFETR","OBJECT_NAME":"STARLINK-4794","ECCENTRICITY":"0.00012950","PERIAPSIS":"538.868"},{"RA_OF_ASC_NODE":"347.7417","MEAN_MOTION":"15.08847354","CLASSIFICATION_TYPE":"U","PERIOD":"95.437","MEAN_MOTION_DDOT":"0.0000000000000","RCS_SIZE":"LARGE","INCLINATION":"53.2166","GP_ID":"230304937","DECAY_DATE":null,"ARG_OF_PERICENTER":"75.3494","CENTER_NAME":"EARTH","COUNTRY_CODE":"US","REV_AT_EPOCH":"3305","EPOCH":"2023-04-18T01:29:02.153472","ELEMENT_SET_NO":"999","APOAPSIS":"540.361","NORAD_CAT_ID":"53854","MEAN_ANOMALY":"284.7600","REF_FRAME":"TEME","OBJECT_ID":"2022-114AN","MEAN_ELEMENT_THEORY":"SGP4","OBJECT_NAME":"STARLINK-4800","SITE":"AFETR","ECCENTRICITY":"0.00009220","SEMIMAJOR_AXIS":"6917.858","PERIAPSIS":"539.085","BSTAR":"0.00017754000000","TLE_LINE2":"2 53854  53.2166 347.7417 0000922  75.3494 284.7600 15.08847354 33051","TIME_SYSTEM":"UTC","OBJECT_TYPE":"PAYLOAD","FILE":"3889800","LAUNCH_DATE":"2022-09-19","MEAN_MOTION_DOT":"0.00002539","TLE_LINE1":"1 53854U 22114AN  23108.06183048  .00002539  00000-0  17754-3 0  9995","EPHEMERIS_TYPE":"0"},{"EPHEMERIS_TYPE":"0","MEAN_MOTION_DOT":"-0.00186992","LAUNCH_DATE":"2022-09-19","TLE_LINE1":"1 53855U 22114AP  23108.80476129 -.00186992  00000-0 -12323-1 0  9996","TLE_LINE2":"2 53855  53.2157 353.8389 0001850  77.3324 282.7875 15.07994299 33572","TIME_SYSTEM":"UTC","FILE":"3889987","OBJECT_TYPE":"PAYLOAD","BSTAR":"-0.01232300000000","SEMIMAJOR_AXIS":"6920.467","SITE":"AFETR","OBJECT_NAME":"STARLINK-4703","ECCENTRICITY":"0.00018500","PERIAPSIS":"541.051","MEAN_ANOMALY":"282.7875","OBJECT_ID":"2022-114AP","MEAN_ELEMENT_THEORY":"SGP4","REF_FRAME":"TEME","APOAPSIS":"543.612","NORAD_CAT_ID":"53855","EPOCH":"2023-04-18T19:18:51.375456","ELEMENT_SET_NO":"999","CENTER_NAME":"EARTH","ARG_OF_PERICENTER":"77.3324","REV_AT_EPOCH":"3357","COUNTRY_CODE":"US","DECAY_DATE":null,"GP_ID":"230333744","RCS_SIZE":"LARGE","MEAN_MOTION_DDOT":"0.0000000000000","INCLINATION":"53.2157","CLASSIFICATION_TYPE":"U","PERIOD":"95.491","RA_OF_ASC_NODE":"353.8389","MEAN_MOTION":"15.07994299"},{"EPHEMERIS_TYPE":"0","LAUNCH_DATE":"2022-09-19","MEAN_MOTION_DOT":"0.00003188","TLE_LINE1":"1 53856U 22114AQ  23108.11333435  .00003188  00000-0  21828-3 0  9998","TIME_SYSTEM":"UTC","TLE_LINE2":"2 53856  53.2168 347.3538 0001074  78.4413 281.6699 15.08844985 33061","OBJECT_TYPE":"PAYLOAD","FILE":"3889801","BSTAR":"0.00021828000000","SITE":"AFETR","OBJECT_NAME":"STARLINK-4795","ECCENTRICITY":"0.00010740","SEMIMAJOR_AXIS":"6917.865","PERIAPSIS":"538.987","MEAN_ANOMALY":"281.6699","REF_FRAME":"TEME","MEAN_ELEMENT_THEORY":"SGP4","OBJECT_ID":"2022-114AQ","APOAPSIS":"540.473","NORAD_CAT_ID":"53856","EPOCH":"2023-04-18T02:43:12.087840","ELEMENT_SET_NO":"999","ARG_OF_PERICENTER":"78.4413","CENTER_NAME":"EARTH","COUNTRY_CODE":"US","REV_AT_EPOCH":"3306","GP_ID":"230304875","DECAY_DATE":null,"RCS_SIZE":"LARGE","MEAN_MOTION_DDOT":"0.0000000000000","INCLINATION":"53.2168","CLASSIFICATION_TYPE":"U","PERIOD":"95.437","RA_OF_ASC_NODE":"347.3538","MEAN_MOTION":"15.08844985"},{"PERIOD":"95.437","CLASSIFICATION_TYPE":"U","MEAN_MOTION":"15.08840996","RA_OF_ASC_NODE":"354.0812","RCS_SIZE":"LARGE","INCLINATION":"53.2162","MEAN_MOTION_DDOT":"0.0000000000000","REV_AT_EPOCH":"3302","COUNTRY_CODE":"US","CENTER_NAME":"EARTH","ARG_OF_PERICENTER":"103.3101","DECAY_DATE":null,"GP_ID":"230304892","NORAD_CAT_ID":"53857","APOAPSIS":"540.438","ELEMENT_SET_NO":"999","EPOCH":"2023-04-18T17:32:03.697440","OBJECT_ID":"2022-114AR","MEAN_ELEMENT_THEORY":"SGP4","REF_FRAME":"TEME","MEAN_ANOMALY":"256.8004","PERIAPSIS":"539.046","SEMIMAJOR_AXIS":"6917.877","OBJECT_NAME":"STARLINK-4809","SITE":"AFETR","ECCENTRICITY":"0.00010060","FILE":"3889803","OBJECT_TYPE":"PAYLOAD","TIME_SYSTEM":"UTC","TLE_LINE2":"2 53857  53.2162 354.0812 0001006 103.3101 256.8004 15.08840996 33021","BSTAR":"0.00030285000000","EPHEMERIS_TYPE":"0","TLE_LINE1":"1 53857U 22114AR  23108.73059835  .00004535  00000-0  30285-3 0  9990","MEAN_MOTION_DOT":"0.00004535","LAUNCH_DATE":"2022-09-19"}];
